ORBCOMM FM108           
1 41187U 15081J   25228.19241606  .00000582  00000+0  16135-3 0  9997
2 41187  47.0039 183.5777 0002975 247.5470 112.5100 14.58235427515637
ORBCOMM FM117           
1 41188U 15081K   25227.26787831  .00000462  00000+0  13566-3 0  9992
2 41188  47.0000 186.6862 0003645 250.1161 109.9332 14.58230964515466
ORBCOMM FM116           
1 41189U 15081L   25227.52815166  .00000476  00000+0  13832-3 0  9996
2 41189  47.0017 275.2844 0000813  52.0416 308.0543 14.58316960514316
